{
  "type": "FeatureCollection",
  "features": [
    {
      "type": "Feature",
      "properties": {
        "norad_id": 43783,
        "name": "KAZSTSAT",
        "group": "resource",
        "lat": -50.79551330260745,
        "lon": 38.49042449082526,
        "alt_km": 571.7633295352343,
        "timestamp": "2025-12-20T09:36:01.289384+00:00",
        "meta_object_name": "KAZSTSAT",
        "meta_object_id": "2018-099AB",
        "meta_epoch": "2025-12-20T01:49:14.151936",
        "meta_mean_motion": 14.99364143,
        "meta_eccentricity": 0.000598,
        "meta_inclination": 97.4531,
        "meta_ra_of_asc_node": 28.9452,
        "meta_arg_of_pericenter": 297.2395,
        "meta_mean_anomaly": 62.8219,
        "meta_ephemeris_type": 0,
        "meta_classification_type": "U",
        "meta_norad_cat_id": 43783,
        "meta_element_set_no": 999,
        "meta_rev_at_epoch": 38446,
        "meta_bstar": 1.9936e-05,
        "meta_mean_motion_dot": 1.88e-06,
        "meta_mean_motion_ddot": 0,
        "tle_line1": "1 43783U 18099AB  25354.07585824  .00000188  00000+0  19936-4 0  9998",
        "tle_line2": "2 43783  97.4531  28.9452 0005980 297.2395  62.8219 14.99364143384462"
      },
      "geometry": {
        "type": "Point",
        "coordinates": [
          38.49042449082526,
          -50.79551330260745
        ]
      }
    },
    {
      "type": "Feature",
      "properties": {
        "norad_id": 43831,
        "name": "SAUDISAT 5A",
        "group": "resource",
        "lat": 6.453429109634635,
        "lon": 53.608822057959976,
        "alt_km": 485.3106665260093,
        "timestamp": "2025-12-20T09:36:01.289394+00:00",
        "meta_object_name": "SAUDISAT 5A",
        "meta_object_id": "2018-102A",
        "meta_epoch": "2025-12-20T04:50:59.693856",
        "meta_mean_motion": 15.25742191,
        "meta_eccentricity": 0.0011427,
        "meta_inclination": 97.3346,
        "meta_ra_of_asc_node": 54.2495,
        "meta_arg_of_pericenter": 53.2866,
        "meta_mean_anomaly": 306.942,
        "meta_ephemeris_type": 0,
        "meta_classification_type": "U",
        "meta_norad_cat_id": 43831,
        "meta_element_set_no": 999,
        "meta_rev_at_epoch": 38836,
        "meta_bstar": 0.00017213,
        "meta_mean_motion_dot": 4.327e-05,
        "meta_mean_motion_ddot": 0,
        "tle_line1": "1 43831U 18102A   25354.20207979  .00004327  00000+0  17213-3 0  9998",
        "tle_line2": "2 43831  97.3346  54.2495 0011427  53.2866 306.9420 15.25742191388366"
      },
      "geometry": {
        "type": "Point",
        "coordinates": [
          53.608822057959976,
          6.453429109634635
        ]
      }
    },
    {
      "type": "Feature",
      "properties": {
        "norad_id": 43833,
        "name": "SAUDISAT 5B",
        "group": "resource",
        "lat": 67.44140592897739,
        "lon": 39.10796425702513,
        "alt_km": 472.86406355643885,
        "timestamp": "2025-12-20T09:36:01.289404+00:00",
        "meta_object_name": "SAUDISAT 5B",
        "meta_object_id": "2018-102C",
        "meta_epoch": "2025-12-20T04:34:49.704384",
        "meta_mean_motion": 15.26091002,
        "meta_eccentricity": 0.0012156,
        "meta_inclination": 97.3441,
        "meta_ra_of_asc_node": 56.9904,
        "meta_arg_of_pericenter": 55.4432,
        "meta_mean_anomaly": 304.7951,
        "meta_ephemeris_type": 0,
        "meta_classification_type": "U",
        "meta_norad_cat_id": 43833,
        "meta_element_set_no": 999,
        "meta_rev_at_epoch": 38847,
        "meta_bstar": 0.00016592,
        "meta_mean_motion_dot": 4.214e-05,
        "meta_mean_motion_ddot": 0,
        "tle_line1": "1 43833U 18102C   25354.19085306  .00004214  00000+0  16592-3 0  9990",
        "tle_line2": "2 43833  97.3441  56.9904 0012156  55.4432 304.7951 15.26091002388477"
      },
      "geometry": {
        "type": "Point",
        "coordinates": [
          39.10796425702513,
          67.44140592897739
        ]
      }
    },
    {
      "type": "Feature",
      "properties": {
        "norad_id": 44622,
        "name": "GAOFEN-10R",
        "group": "resource",
        "lat": -78.17776281421644,
        "lon": 79.53403036620384,
        "alt_km": 630.2486267992008,
        "timestamp": "2025-12-20T09:36:01.289414+00:00",
        "meta_object_name": "GAOFEN-10R",
        "meta_object_id": "2019-066A",
        "meta_epoch": "2025-12-20T03:34:00.149376",
        "meta_mean_motion": 14.82815048,
        "meta_eccentricity": 0.0007382,
        "meta_inclination": 98.0288,
        "meta_ra_of_asc_node": 301.684,
        "meta_arg_of_pericenter": 20.5597,
        "meta_mean_anomaly": 339.5912,
        "meta_ephemeris_type": 0,
        "meta_classification_type": "U",
        "meta_norad_cat_id": 44622,
        "meta_element_set_no": 999,
        "meta_rev_at_epoch": 33584,
        "meta_bstar": 0.00013921,
        "meta_mean_motion_dot": 1.072e-05,
        "meta_mean_motion_ddot": 0,
        "tle_line1": "1 44622U 19066A   25354.14861284  .00001072  00000+0  13921-3 0  9991",
        "tle_line2": "2 44622  98.0288 301.6840 0007382  20.5597 339.5912 14.82815048335841"
      },
      "geometry": {
        "type": "Point",
        "coordinates": [
          79.53403036620384,
          -78.17776281421644
        ]
      }
    },
    {
      "type": "Feature",
      "properties": {
        "norad_id": 44804,
        "name": "CARTOSAT-3",
        "group": "resource",
        "lat": -14.04067904978049,
        "lon": 55.763816200470764,
        "alt_km": 510.17641206837743,
        "timestamp": "2025-12-20T09:36:01.289424+00:00",
        "meta_object_name": "CARTOSAT-3",
        "meta_object_id": "2019-081A",
        "meta_epoch": "2025-12-20T04:55:12.552096",
        "meta_mean_motion": 15.19208509,
        "meta_eccentricity": 0.0013925,
        "meta_inclination": 97.4581,
        "meta_ra_of_asc_node": 53.6939,
        "meta_arg_of_pericenter": 59.9361,
        "meta_mean_anomaly": 300.3253,
        "meta_ephemeris_type": 0,
        "meta_classification_type": "U",
        "meta_norad_cat_id": 44804,
        "meta_element_set_no": 999,
        "meta_rev_at_epoch": 33629,
        "meta_bstar": 4.9708e-05,
        "meta_mean_motion_dot": 9.8e-06,
        "meta_mean_motion_ddot": 0,
        "tle_line1": "1 44804U 19081A   25354.20500639  .00000980  00000+0  49708-4 0  9991",
        "tle_line2": "2 44804  97.4581  53.6939 0013925  59.9361 300.3253 15.19208509336293"
      },
      "geometry": {
        "type": "Point",
        "coordinates": [
          55.763816200470764,
          -14.04067904978049
        ]
      }
    },
    {
      "type": "Feature",
      "properties": {
        "norad_id": 44819,
        "name": "GAOFEN-12 01",
        "group": "resource",
        "lat": 69.31552354954037,
        "lon": -158.19607310834039,
        "alt_km": 620.4192639011662,
        "timestamp": "2025-12-20T09:36:01.289434+00:00",
        "meta_object_name": "GAOFEN-12 01",
        "meta_object_id": "2019-082A",
        "meta_epoch": "2025-12-20T04:14:35.805120",
        "meta_mean_motion": 14.80665393,
        "meta_eccentricity": 0.0001811,
        "meta_inclination": 97.8124,
        "meta_ra_of_asc_node": 0.2626,
        "meta_arg_of_pericenter": 196.1336,
        "meta_mean_anomaly": 163.982,
        "meta_ephemeris_type": 0,
        "meta_classification_type": "U",
        "meta_norad_cat_id": 44819,
        "meta_element_set_no": 999,
        "meta_rev_at_epoch": 32760,
        "meta_bstar": 5.0584e-05,
        "meta_mean_motion_dot": 3.38e-06,
        "meta_mean_motion_ddot": 0,
        "tle_line1": "1 44819U 19082A   25354.17680330  .00000338  00000+0  50584-4 0  9992",
        "tle_line2": "2 44819  97.8124   0.2626 0001811 196.1336 163.9820 14.80665393327607"
      },
      "geometry": {
        "type": "Point",
        "coordinates": [
          -158.19607310834039,
          69.31552354954037
        ]
      }
    },
    {
      "type": "Feature",
      "properties": {
        "norad_id": 44873,
        "name": "CSG-1",
        "group": "resource",
        "lat": -78.26548826774707,
        "lon": -46.21112720592812,
        "alt_km": 630.9251102207318,
        "timestamp": "2025-12-20T09:36:01.289444+00:00",
        "meta_object_name": "CSG-1",
        "meta_object_id": "2019-092A",
        "meta_epoch": "2025-12-20T05:11:04.565184",
        "meta_mean_motion": 14.82149588,
        "meta_eccentricity": 0.0001483,
        "meta_inclination": 97.8803,
        "meta_ra_of_asc_node": 175.4275,
        "meta_arg_of_pericenter": 86.1018,
        "meta_mean_anomaly": 274.0364,
        "meta_ephemeris_type": 0,
        "meta_classification_type": "U",
        "meta_norad_cat_id": 44873,
        "meta_element_set_no": 999,
        "meta_rev_at_epoch": 32496,
        "meta_bstar": 5.6541e-05,
        "meta_mean_motion_dot": 3.98e-06,
        "meta_mean_motion_ddot": 0,
        "tle_line1": "1 44873U 19092A   25354.21602506  .00000398  00000+0  56541-4 0  9992",
        "tle_line2": "2 44873  97.8803 175.4275 0001483  86.1018 274.0364 14.82149588324964"
      },
      "geometry": {
        "type": "Point",
        "coordinates": [
          -46.21112720592812,
          -78.26548826774707
        ]
      }
    }
  ]
}